start=new Date('2022-05-10T00:00:00.000Z').valueOf();
sats=[{"PERIOD":"95.592","RCS_SIZE":"LARGE","MEAN_MOTION_DOT":"0.00000079","GP_ID":"203142036","MEAN_ELEMENT_THEORY":"SGP4","CLASSIFICATION_TYPE":"U","OBJECT_TYPE":"PAYLOAD","DECAY_DATE":null,"ARG_OF_PERICENTER":"82.3788","MEAN_MOTION":"15.06395524","ELEMENT_SET_NO":"999","COUNTRY_CODE":"US","EPOCH":"2022-05-09T20:19:35.757696","OBJECT_ID":"2021-027N","TLE_LINE2":"2 48104  53.0558 320.7689 0001534  82.3788 277.7375 15.06395524 61644","SITE":"AFETR","OBJECT_NAME":"STARLINK-2439","LAUNCH_DATE":"2021-04-07","REF_FRAME":"TEME","RA_OF_ASC_NODE":"320.7689","TLE_LINE1":"1 48104U 21027N   22129.84694164  .00000079  00000-0  24236-4 0  9994","EPHEMERIS_TYPE":"0","TIME_SYSTEM":"UTC","MEAN_ANOMALY":"277.7375","CENTER_NAME":"EARTH","FILE":"3438010","APOAPSIS":"548.290","NORAD_CAT_ID":"48104","REV_AT_EPOCH":"6164","MEAN_MOTION_DDOT":"0.0000000000000","SEMIMAJOR_AXIS":"6925.362","PERIAPSIS":"546.165","BSTAR":"0.00002423600000","ECCENTRICITY":"0.00015340","INCLINATION":"53.0558"},{"TIME_SYSTEM":"UTC","EPHEMERIS_TYPE":"0","CENTER_NAME":"EARTH","MEAN_ANOMALY":"301.0460","RA_OF_ASC_NODE":"266.4773","TLE_LINE1":"1 48105U 21027P   22129.68798690  .00001524  00000-0  12117-3 0  9996","NORAD_CAT_ID":"48105","APOAPSIS":"548.284","REV_AT_EPOCH":"6238","FILE":"3438010","PERIAPSIS":"546.156","SEMIMAJOR_AXIS":"6925.355","BSTAR":"0.00012117000000","MEAN_MOTION_DDOT":"0.0000000000000","INCLINATION":"53.0544","ECCENTRICITY":"0.00015370","GP_ID":"203140799","CLASSIFICATION_TYPE":"U","MEAN_ELEMENT_THEORY":"SGP4","PERIOD":"95.592","MEAN_MOTION_DOT":"0.00001524","RCS_SIZE":"LARGE","ELEMENT_SET_NO":"999","ARG_OF_PERICENTER":"59.0679","MEAN_MOTION":"15.06397920","OBJECT_TYPE":"PAYLOAD","DECAY_DATE":null,"OBJECT_ID":"2021-027P","EPOCH":"2022-05-09T16:30:42.068160","COUNTRY_CODE":"US","TLE_LINE2":"2 48105  53.0544 266.4773 0001537  59.0679 301.0460 15.06397920 62383","REF_FRAME":"TEME","SITE":"AFETR","LAUNCH_DATE":"2021-04-07","OBJECT_NAME":"STARLINK-2440"},{"FILE":"3438010","NORAD_CAT_ID":"48106","APOAPSIS":"548.282","REV_AT_EPOCH":"6170","RA_OF_ASC_NODE":"315.9583","TLE_LINE1":"1 48106U 21027Q   22129.80501445  .00001609  00000-0  12690-3 0  9991","EPHEMERIS_TYPE":"0","TIME_SYSTEM":"UTC","MEAN_ANOMALY":"278.8578","CENTER_NAME":"EARTH","ECCENTRICITY":"0.00015750","INCLINATION":"53.0564","MEAN_MOTION_DDOT":"0.0000000000000","PERIAPSIS":"546.101","SEMIMAJOR_AXIS":"6925.327","BSTAR":"0.00012690000000","DECAY_DATE":null,"OBJECT_TYPE":"PAYLOAD","ARG_OF_PERICENTER":"81.2590","MEAN_MOTION":"15.06407124","ELEMENT_SET_NO":"999","PERIOD":"95.592","MEAN_MOTION_DOT":"0.00001609","RCS_SIZE":"LARGE","GP_ID":"203141046","MEAN_ELEMENT_THEORY":"SGP4","CLASSIFICATION_TYPE":"U","TLE_LINE2":"2 48106  53.0564 315.9583 0001575  81.2590 278.8578 15.06407124 61700","SITE":"AFETR","OBJECT_NAME":"STARLINK-2442","LAUNCH_DATE":"2021-04-07","REF_FRAME":"TEME","COUNTRY_CODE":"US","EPOCH":"2022-05-09T19:19:13.248480","OBJECT_ID":"2021-027Q"},{"OBJECT_ID":"2021-027R","EPOCH":"2022-05-09T19:40:27.813504","COUNTRY_CODE":"US","TLE_LINE2":"2 48107  53.0562 315.8785 0001363  84.6539 275.4606 15.06396821 61703","REF_FRAME":"TEME","SITE":"AFETR","LAUNCH_DATE":"2021-04-07","OBJECT_NAME":"STARLINK-2443","GP_ID":"203141799","CLASSIFICATION_TYPE":"U","MEAN_ELEMENT_THEORY":"SGP4","PERIOD":"95.592","MEAN_MOTION_DOT":"0.00000355","RCS_SIZE":"LARGE","ELEMENT_SET_NO":"999","ARG_OF_PERICENTER":"84.6539","MEAN_MOTION":"15.06396821","OBJECT_TYPE":"PAYLOAD","DECAY_DATE":null,"SEMIMAJOR_AXIS":"6925.358","PERIAPSIS":"546.279","BSTAR":"0.00004270200000","MEAN_MOTION_DDOT":"0.0000000000000","INCLINATION":"53.0562","ECCENTRICITY":"0.00013630","TIME_SYSTEM":"UTC","EPHEMERIS_TYPE":"0","CENTER_NAME":"EARTH","MEAN_ANOMALY":"275.4606","RA_OF_ASC_NODE":"315.8785","TLE_LINE1":"1 48107U 21027R   22129.81976636  .00000355  00000-0  42702-4 0  9996","NORAD_CAT_ID":"48107","APOAPSIS":"548.167","REV_AT_EPOCH":"6170","FILE":"3438010"},{"COUNTRY_CODE":"US","EPOCH":"2022-05-09T20:37:30.461376","OBJECT_ID":"2021-027S","TLE_LINE2":"2 48108  53.0556 325.7086 0001224  82.0121 278.1007 15.06401287 61568","SITE":"AFETR","OBJECT_NAME":"STARLINK-2444","LAUNCH_DATE":"2021-04-07","REF_FRAME":"TEME","PERIOD":"95.592","RCS_SIZE":"LARGE","MEAN_MOTION_DOT":"0.00001470","GP_ID":"203142536","MEAN_ELEMENT_THEORY":"SGP4","CLASSIFICATION_TYPE":"U","OBJECT_TYPE":"PAYLOAD","DECAY_DATE":null,"MEAN_MOTION":"15.06401287","ARG_OF_PERICENTER":"82.0121","ELEMENT_SET_NO":"999","MEAN_MOTION_DDOT":"0.0000000000000","SEMIMAJOR_AXIS":"6925.345","PERIAPSIS":"546.362","BSTAR":"0.00011756000000","ECCENTRICITY":"0.00012240","INCLINATION":"53.0556","RA_OF_ASC_NODE":"325.7086","TLE_LINE1":"1 48108U 21027S   22129.85938034  .00001470  00000-0  11756-3 0  9994","EPHEMERIS_TYPE":"0","TIME_SYSTEM":"UTC","MEAN_ANOMALY":"278.1007","CENTER_NAME":"EARTH","FILE":"3438010","APOAPSIS":"548.057","NORAD_CAT_ID":"48108","REV_AT_EPOCH":"6156"},{"ECCENTRICITY":"0.00013830","INCLINATION":"53.0545","MEAN_MOTION_DDOT":"0.0000000000000","BSTAR":"0.00003857000000","SEMIMAJOR_AXIS":"6925.353","PERIAPSIS":"546.260","FILE":"3438010","REV_AT_EPOCH":"6143","APOAPSIS":"548.175","NORAD_CAT_ID":"48109","TLE_LINE1":"1 48109U 21027T   22129.87320078  .00000293  00000-0  38570-4 0  9996","RA_OF_ASC_NODE":"335.6461","CENTER_NAME":"EARTH","MEAN_ANOMALY":"291.9328","TIME_SYSTEM":"UTC","EPHEMERIS_TYPE":"0","REF_FRAME":"TEME","LAUNCH_DATE":"2021-04-07","SITE":"AFETR","OBJECT_NAME":"STARLINK-2445","TLE_LINE2":"2 48109  53.0545 335.6461 0001383  68.1808 291.9328 15.06398697 61432","EPOCH":"2022-05-09T20:57:24.547392","COUNTRY_CODE":"US","OBJECT_ID":"2021-027T","DECAY_DATE":null,"OBJECT_TYPE":"PAYLOAD","ELEMENT_SET_NO":"999","MEAN_MOTION":"15.06398697","ARG_OF_PERICENTER":"68.1808","MEAN_MOTION_DOT":"0.00000293","RCS_SIZE":"LARGE","PERIOD":"95.592","CLASSIFICATION_TYPE":"U","MEAN_ELEMENT_THEORY":"SGP4","GP_ID":"203141298"},{"EPHEMERIS_TYPE":"0","TIME_SYSTEM":"UTC","MEAN_ANOMALY":"283.8506","CENTER_NAME":"EARTH","RA_OF_ASC_NODE":"325.7588","TLE_LINE1":"1 48110U 21027U   22129.84832457  .00003480  00000-0  25236-3 0  9999","APOAPSIS":"548.119","NORAD_CAT_ID":"48110","REV_AT_EPOCH":"6157","FILE":"3438010","PERIAPSIS":"546.292","SEMIMAJOR_AXIS":"6925.341","BSTAR":"0.00025236000000","MEAN_MOTION_DDOT":"0.0000000000000","INCLINATION":"53.0542","ECCENTRICITY":"0.00013190","GP_ID":"203141545","MEAN_ELEMENT_THEORY":"SGP4","CLASSIFICATION_TYPE":"U","PERIOD":"95.592","MEAN_MOTION_DOT":"0.00003480","RCS_SIZE":"LARGE","MEAN_MOTION":"15.06402484","ARG_OF_PERICENTER":"76.2630","ELEMENT_SET_NO":"999","DECAY_DATE":null,"OBJECT_TYPE":"PAYLOAD","OBJECT_ID":"2021-027U","COUNTRY_CODE":"US","EPOCH":"2022-05-09T20:21:35.242848","TLE_LINE2":"2 48110  53.0542 325.7588 0001319  76.2630 283.8506 15.06402484 61576","SITE":"AFETR","OBJECT_NAME":"STARLINK-2447","LAUNCH_DATE":"2021-04-07","REF_FRAME":"TEME"},{"MEAN_MOTION_DDOT":"0.0000000000000","BSTAR":"-0.00002677100000","PERIAPSIS":"546.420","SEMIMAJOR_AXIS":"6925.326","ECCENTRICITY":"0.00011120","INCLINATION":"53.0558","TLE_LINE1":"1 48111U 21027V   22129.84369143 -.00000680  00000-0 -26771-4 0  9994","RA_OF_ASC_NODE":"325.7806","CENTER_NAME":"EARTH","MEAN_ANOMALY":"269.8378","TIME_SYSTEM":"UTC","EPHEMERIS_TYPE":"0","FILE":"3438010","REV_AT_EPOCH":"6157","APOAPSIS":"547.961","NORAD_CAT_ID":"48111","EPOCH":"2022-05-09T20:14:54.939552","COUNTRY_CODE":"US","OBJECT_ID":"2021-027V","REF_FRAME":"TEME","OBJECT_NAME":"STARLINK-2448","SITE":"AFETR","LAUNCH_DATE":"2021-04-07","TLE_LINE2":"2 48111  53.0558 325.7806 0001112  90.2739 269.8378 15.06407519 61579","RCS_SIZE":"LARGE","MEAN_MOTION_DOT":"-0.00000680","PERIOD":"95.592","CLASSIFICATION_TYPE":"U","MEAN_ELEMENT_THEORY":"SGP4","GP_ID":"203142299","DECAY_DATE":null,"OBJECT_TYPE":"PAYLOAD","ELEMENT_SET_NO":"999","ARG_OF_PERICENTER":"90.2739","MEAN_MOTION":"15.06407519"},{"INCLINATION":"53.0558","ECCENTRICITY":"0.00014790","PERIAPSIS":"546.200","SEMIMAJOR_AXIS":"6925.360","BSTAR":"0.00004029700000","MEAN_MOTION_DDOT":"0.0000000000000","NORAD_CAT_ID":"48112","APOAPSIS":"548.249","REV_AT_EPOCH":"6136","FILE":"3438010","TIME_SYSTEM":"UTC","EPHEMERIS_TYPE":"0","CENTER_NAME":"EARTH","MEAN_ANOMALY":"282.4250","RA_OF_ASC_NODE":"340.5861","TLE_LINE1":"1 48112U 21027W   22129.88470277  .00000319  00000-0  40297-4 0  9996","TLE_LINE2":"2 48112  53.0558 340.5861 0001479  77.6904 282.4250 15.06396421 61361","REF_FRAME":"TEME","LAUNCH_DATE":"2021-04-07","SITE":"AFETR","OBJECT_NAME":"STARLINK-2449","OBJECT_ID":"2021-027W","EPOCH":"2022-05-09T21:13:58.319328","COUNTRY_CODE":"US","ELEMENT_SET_NO":"999","ARG_OF_PERICENTER":"77.6904","MEAN_MOTION":"15.06396421","OBJECT_TYPE":"PAYLOAD","DECAY_DATE":null,"GP_ID":"203142037","CLASSIFICATION_TYPE":"U","MEAN_ELEMENT_THEORY":"SGP4","PERIOD":"95.592","RCS_SIZE":"LARGE","MEAN_MOTION_DOT":"0.00000319"},{"CLASSIFICATION_TYPE":"U","MEAN_ELEMENT_THEORY":"SGP4","GP_ID":"203140800","MEAN_MOTION_DOT":"0.00001478","RCS_SIZE":"LARGE","PERIOD":"95.592","ELEMENT_SET_NO":"999","ARG_OF_PERICENTER":"79.3988","MEAN_MOTION":"15.06400602","OBJECT_TYPE":"PAYLOAD","DECAY_DATE":null,"OBJECT_ID":"2021-027X","EPOCH":"2022-05-09T20:04:20.128512","COUNTRY_CODE":"US","REF_FRAME":"TEME","SITE":"AFETR","LAUNCH_DATE":"2021-04-07","OBJECT_NAME":"STARLINK-2450","TLE_LINE2":"2 48113  53.0546 335.8092 0001342  79.3988 280.7152 15.06400602 61417","CENTER_NAME":"EARTH","MEAN_ANOMALY":"280.7152","TIME_SYSTEM":"UTC","EPHEMERIS_TYPE":"0","TLE_LINE1":"1 48113U 21027X   22129.83634408  .00001478  00000-0  11806-3 0  9990","RA_OF_ASC_NODE":"335.8092","REV_AT_EPOCH":"6141","NORAD_CAT_ID":"48113","APOAPSIS":"548.141","FILE":"3438010","BSTAR":"0.00011806000000","PERIAPSIS":"546.282","SEMIMAJOR_AXIS":"6925.347","MEAN_MOTION_DDOT":"0.0000000000000","INCLINATION":"53.0546","ECCENTRICITY":"0.00013420"}];
